NSS-11                  
1 26554U 00059A   26186.26346402  .00000037  00000+0  00000+0 0  9994
2 26554   2.1702  81.1845 0002978  22.5131  90.4071  1.00272005 41477
AMC-6                   
1 26580U 00067A   26185.28377997  .00000100  00000+0  00000+0 0  9997
2 26580   0.1930  83.5317 0003944  29.7815 136.1163  1.00270800 94063
AMC-15                  
1 28446U 04041A   26186.12816252 -.00000075  00000+0  00000+0 0  9994
2 28446   0.0182 336.5213 0002372 132.8365 114.8589  1.00271609 79482
NSS-10                  
1 28526U 05003A   26186.13939245 -.00000241  00000+0  00000+0 0  9996
2 28526   6.4914  70.2355 0002939  32.8173 192.8212  1.00272088 53335
ASTRA 1KR               
1 29055U 06012A   26186.22399367  .00000132  00000+0  00000+0 0  9998
2 29055   0.5174  83.2287 0003554  15.5760 284.0473  1.00272272 45876
ASTRA 1L                
1 31306U 07016A   26186.14407031 -.00000172  00000+0  00000+0 0  9999
2 31306   1.3651  81.4499 0005538  25.0604 204.0063  1.00271002 45168
ASTRA 4A                
1 32299U 07057A   26185.00932565  .00000044  00000+0  00000+0 0  9992
2 32299   0.0106  16.5702 0002561  89.9612 183.6546  1.00272693 51812
ASTRA 1M                
1 33436U 08057A   26186.22408034  .00000134  00000+0  00000+0 0  9991
2 33436   0.3398  82.7167 0004948  34.9371 265.6198  1.00272506 45916
NSS-9                   
1 33749U 09008A   26186.24408249  .00000085  00000+0  00000+0 0  9990
2 33749   1.3054  82.4942 0002200  15.4507  96.2444  1.00272877 63705
SES-7 (PROTOSTAR 2)     
1 34941U 09027A   26183.68624840 -.00000334  00000+0  00000+0 0  9996
2 34941   0.0243  57.4916 0001141 120.3413  98.1720  1.00270101 62787
NSS-12                  
1 36032U 09058A   26186.16027706  .00000084  00000+0  00000+0 0  9998
2 36032   0.0581 277.5410 0004588 153.4579 326.8609  1.00272721 61097
SES-1                   
1 36516U 10016A   26186.20022655 -.00000101  00000+0  00000+0 0  9995
2 36516   0.0394 286.6715 0002740 173.5464 154.0655  1.00271374 59215
ASTRA 3B                
1 36581U 10021A   26186.22486035  .00000150  00000+0  00000+0 0  9994
2 36581   1.5153  83.3359 0004243  16.9623 287.3528  1.00272418 59049
SES-3                   
1 37748U 11035A   26186.12859587 -.00000089  00000+0  00000+0 0  9993
2 37748   1.3702  82.9048 0002233  15.0961 128.4322  1.00271908 54770
ASTRA 1N                
1 37775U 11041A   26183.58642093  .00000130  00000+0  00000+0 0  9995
2 37775   0.0898  44.2622 0005880  55.7608  50.8904  1.00272787 44680
SES-2                   
1 37809U 11049A   26186.13171588 -.00000183  00000+0  00000+0 0  9990
2 37809   0.1018  92.5966 0002897  10.7521 140.2061  1.00271883 54146
QUETZSAT 1              
1 37826U 11054A   26183.56707965 -.00000231  00000+0  00000+0 0  9997
2 37826   0.0341 293.4838 0002997 173.6787 300.5957  1.00271106 50023
SES-4                   
1 38087U 12007A   26183.36433681 -.00000158  00000+0  00000+0 0  9993
2 38087   0.0229  41.5467 0002404  57.1982 290.8171  1.00271083 52377
SES-5                   
1 38652U 12036A   26183.65487642  .00000044  00000+0  00000+0 0  9994
2 38652   0.0450 320.1883 0002267 138.1529  63.0821  1.00270830 44612
ASTRA 2F                
1 38778U 12051A   26186.22581368  .00000163  00000+0  00000+0 0  9998
2 38778   0.0650 250.9771 0002530 285.8549 215.8925  1.00273298 41311
SES-6                   
1 39172U 13026A   26186.21220694 -.00000248  00000+0  00000+0 0  9996
2 39172   0.0178 347.6870 0002620 109.5282 221.8951  1.00271571 47904
O3B FM5                 
1 39188U 13031A   26186.03013072 -.00000012  00000+0  00000+0 0  9998
2 39188   0.0963 338.5064 0002859 111.4751 270.0512  5.00115605237936
O3B FM4                 
1 39189U 13031B   26182.55153905 -.00000018  00000+0  00000+0 0  9998
2 39189   0.0417 346.2021 0005452  96.6045 277.2545  5.00115378237754
O3B FM2                 
1 39190U 13031C   26186.01516099 -.00000012  00000+0  00000+0 0  9996
2 39190   0.0357 342.7070 0002724 117.5182 259.8054  5.00116097238007
O3B PFM                 
1 39191U 13031D   26185.82939199 -.00000012  00000+0  00000+0 0  9995
2 39191   0.0670 348.4692 0005317 106.1119 265.4795  5.00116006237558
ASTRA 2E                
1 39285U 13056A   26185.51302840  .00000163  00000+0  00000+0 0  9995
2 39285   0.0723 317.7137 0002754 162.5208  15.5027  1.00275893 46591
SES-8                   
1 39460U 13071A   26186.09650628 -.00000256  00000+0  00000+0 0  9995
2 39460   0.0374 266.1234 0002928 196.5077 310.2154  1.00271601 44606
ASTRA 5B                
1 39617U 14011B   26183.85175605  .00000148  00000+0  00000+0 0  9991
2 39617   0.0771 302.4799 0002214 165.1332 143.4211  1.00274657 44823
O3B FM3                 
1 40079U 14038A   26186.09596701 -.00000012  00000+0  00000+0 0  9998
2 40079   0.0478 353.0023 0002552 165.8310 201.1773  5.00115713213948
O3B FM7                 
1 40080U 14038B   26186.04208799 -.00000012  00000+0  00000+0 0  9992
2 40080   0.0457 344.1806 0003678  89.8124 286.0473  5.00115669218770
O3B FM6                 
1 40081U 14038C   26186.06906283 -.00000012  00000+0  00000+0 0  9998
2 40081   0.0464 349.9232 0002638 109.4474 260.6591  5.00115803218721
O3B FM8                 
1 40082U 14038D   26185.72252474 -.00000012  00000+0  00000+0 0  9997
2 40082   0.0462 348.6611 0002769 116.0642 255.3052  5.00116106218824
O3B FM10                
1 40348U 14083A   26181.35218119 -.00000020  00000+0  00000+0 0  9994
2 40348   0.0357 330.6093 0002895 132.1065 257.3157  5.00115454210549
O3B FM11                
1 40349U 14083B   26185.96230945 -.00000012  00000+0  00000+0 0  9998
2 40349   0.0552 352.3457 0002598  94.1369 273.5470  5.00115573210805
O3B FM12                
1 40350U 14083C   26185.98930916 -.00000012  00000+0  00000+0 0  9997
2 40350   0.0543 352.5629 0002510 107.2153 260.2500  5.00115905210818
O3B FM9                 
1 40351U 14083D   26186.01613597 -.00000012  00000+0  00000+0 0  9996
2 40351   0.0561 351.4999 0002686 109.3472 259.1830  5.00116044210951
ASTRA 2G                
1 40364U 14089A   26186.22581368  .00000163  00000+0  00000+0 0  9995
2 40364   0.0454 357.9381 0004763  76.7513 318.0246  1.00271103 42147
SES-9                   
1 41380U 16013A   26186.02787091 -.00000332  00000+0  00000+0 0  9991
2 41380   0.0180 322.0565 0002390 137.2097 302.0922  1.00270615 37610
SES-10                  
1 42432U 17017A   26186.15283343 -.00000260  00000+0  00000+0 0  9990
2 42432   0.0158  37.0217 0002954  74.0529 160.2115  1.00272316 33934
SES-15                  
1 42709U 17026A   26186.19471059  .00000072  00000+0  00000+0 0  9994
2 42709   0.0234 325.8516 0000938 176.7364  81.5560  1.00274474  7615
SES-11 (ECHOSTAR 105)   
1 42967U 17063A   26186.12816252 -.00000076  00000+0  00000+0 0  9997
2 42967   0.0157 348.4611 0002807 115.9995 119.8609  1.00271342 31903
SES-14                  
1 43175U 18012B   26186.10056828 -.00000265  00000+0  00000+0 0  9997
2 43175   0.0122  21.0776 0001325  72.8171 177.9185  1.00277118  7201
O3B FM15                
1 43231U 18024A   26186.08294892 -.00000012  00000+0  00000+0 0  9995
2 43231   0.0523   0.4918 0002605 102.1697 257.3675  5.00115821151911
O3B FM16                
1 43232U 18024B   26186.13527528 -.00000012  00000+0  00000+0 0  9997
2 43232   0.0523   5.0255 0002630  95.9819 259.0221  5.00115991151846
O3B FM14                
1 43233U 18024C   26185.97619698 -.00000012  00000+0  00000+0 0  9999
2 43233   0.0511   6.0486 0002885  96.6225 257.3610  5.00115781151842
O3B FM13                
1 43234U 18024D   26186.04207240 -.00000012  00000+0  00000+0 0  9995
2 43234   0.0528 325.4443 0002428  85.0676 309.5095  5.00115704151951
SES-12                  
1 43488U 18049A   26186.09650628 -.00000256  00000+0  00000+0 0  9990
2 43488   0.0110   8.4163 0000561 265.0012 139.4246  1.00270749 29595
O3B FM20                
1 44112U 19020A   26186.00225901 -.00000012  00000+0  00000+0 0  9998
2 44112   0.0523 356.7911 0002386  98.8540 264.3820  5.00115643132465
O3B FM19                
1 44113U 19020B   26185.82938078 -.00000012  00000+0  00000+0 0  9994
2 44113   0.0747 335.8658 0003773 109.1252 275.0520  5.00115976132327
O3B FM17                
1 44114U 19020C   26185.90955435 -.00000012  00000+0  00000+0 0  9990
2 44114   0.0353  10.1653 0002579  91.7847 258.0788  5.00115623132414
O3B FM18                
1 44115U 19020D   26186.05578336 -.00000012  00000+0  00000+0 0  9999
2 44115   0.0528 356.6160 0002769 107.4590 255.9557  5.00115405132543
SES-17                  
1 49332U 21095A   26186.20700692 -.00000259  00000+0  00000+0 0  9992
2 49332   0.0218  42.1236 0001267  83.8092 164.6999  1.00272720 18035
SES-22                  
1 52933U 22071A   26186.28673553  .00000118  00000+0  00000+0 0  9994
2 52933   0.0386 272.0618 0001100 191.6175 143.8306  1.00272764  7707
SES-20                  
1 53960U 22123A   26185.98596728 -.00000088  00000+0  00000+0 0  9994
2 53960   0.0201  66.1138 0002088  33.5025  75.2108  1.00273758 13717
SES-21                  
1 53961U 22123B   26186.19436392  .00000000  00000+0  00000+0 0  9992
2 53961   0.0388  26.2292 0000967  77.1065 118.9053  1.00267830  7399
O3B MPOWER F1           
1 54755U 22174A   26186.06831412 -.00000012  00000+0  00000+0 0  9992
2 54755   0.0502 340.0280 0006564 135.2072 127.2401  5.00114803 66251
O3B MPOWER F2           
1 54756U 22174B   26186.10032066 -.00000012  00000+0  00000+0 0  9996
2 54756   0.0461 340.0724 0005825 118.8754 261.1181  5.00114992 66344
SES-18                  
1 55970U 23038A   26186.12859587 -.00000088  00000+0  00000+0 0  9995
2 55970   0.0339 272.1469 0000168 274.3553  39.8234  1.00272197 12289
SES-19                  
1 55971U 23038B   26186.26481131  .00000101  00000+0  00000+0 0  9992
2 55971   0.0412 280.6946 0001858 190.4526 132.5502  1.00271031 12275
O3B MPOWER F4           
1 56367U 23059A   26185.96466989 -.00000012  00000+0  00000+0 0  9997
2 56367   0.0631 351.6173 0007716 116.5154 251.9513  5.00115491 59498
O3B MPOWER F3           
1 56368U 23059B   26185.79793106 -.00000012  00000+0  00000+0 0  9993
2 56368   0.0638 351.0425 0006695 109.8858 259.1469  5.00116546 55613
O3B MPOWER F5           
1 58346U 23175A   26186.09880847 -.00000012  00000+0  00000+0 0  9993
2 58346   0.0510  10.0204 0005384 111.9225 238.1094  5.00115972 50330
O3B MPOWER F6           
1 58347U 23175B   26185.59961118 -.00000012  00000+0  00000+0 0  9999
2 58347   0.0533   1.8509 0004450  98.6431 259.5558  5.00115843 49220
ASTRA 1P (SES-24)       
1 60086U 24115A   26185.99831355  .00000132  00000+0  00000+0 0  9992
2 60086   0.0582 336.6521 0000933 266.4191  58.5359  1.00263033  7377
O3B MPOWER F7           
1 62362U 24244A   26186.06578201 -.00000012  00000+0  00000+0 0  9999
2 62362   0.0666 344.6573 0005967 114.8636 260.5466  5.00115450 27422
O3B MPOWER F8           
1 62363U 24244B   26185.83283748 -.00000012  00000+0  00000+0 0  9993
2 62363   0.0143 351.3774 0005843 101.0939 267.5954  5.00115079 21754
O3B MPOWER F9           
1 64866U 25153A   26185.96612412 -.00000012  00000+0  00000+0 0  9991
2 64866   0.0602   7.1006 0006599 115.6618 237.3011  5.00115720 20450
O3B MPOWER F10          
1 64867U 25153B   26185.93215839 -.00000012  00000+0  00000+0 0  9991
2 64867   0.0576   3.4738 0002127 246.5619 109.9412  5.00114974 22923
